{
  "norad_id": 41036,
  "name": "TELSTAR 12V",
  "history": [
    {
      "epoch": "2026-03-28T20:04:38.593056Z",
      "apogee_km": 35797.40991226353,
      "perigee_km": 35775.91176843665,
      "latitude_deg": -0.030567191105786026,
      "longitude_deg": -14.964598550425087,
      "height_km": 35789.47041499407,
      "semi_major_axis_km": 42164.79784035009,
      "eccentricity": 0.00025493,
      "inclination_deg": 0.0185,
      "raan_deg": 152.9845,
      "arg_perigee_deg": 211.6167,
      "mean_anomaly_deg": 107.7949,
      "mean_motion_rev_day": 1.0027155
    },
    {
      "epoch": "2026-03-29T04:24:14.432832Z",
      "apogee_km": 35797.365101182135,
      "perigee_km": 35775.93695590603,
      "latitude_deg": 0.03701317671612421,
      "longitude_deg": -15.015582239146637,
      "height_km": 35792.751937641224,
      "semi_major_axis_km": 42164.788028544084,
      "eccentricity": 0.0002541,
      "inclination_deg": 0.0179,
      "raan_deg": 148.8882,
      "arg_perigee_deg": 216.7318,
      "mean_anomaly_deg": 232.0176,
      "mean_motion_rev_day": 1.00271585
    },
    {
      "epoch": "2026-03-30T02:39:07.795296Z",
      "apogee_km": 35797.40562491082,
      "perigee_km": 35775.85942768289,
      "latitude_deg": 0.022092254065286712,
      "longitude_deg": -15.00612060105533,
      "height_km": 35795.996158619855,
      "semi_major_axis_km": 42164.769526296855,
      "eccentricity": 0.0002555,
      "inclination_deg": 0.0126,
      "raan_deg": 128.7518,
      "arg_perigee_deg": 239.4126,
      "mean_anomaly_deg": 204.1089,
      "mean_motion_rev_day": 1.00271651
    },
    {
      "epoch": "2026-03-30T04:14:38.714208Z",
      "apogee_km": 35797.397756913706,
      "perigee_km": 35775.86505298466,
      "latitude_deg": 0.02628099931116773,
      "longitude_deg": -15.015821855478471,
      "height_km": 35793.36781406233,
      "semi_major_axis_km": 42164.76840494919,
      "eccentricity": 0.00025534,
      "inclination_deg": 0.0127,
      "raan_deg": 128.5507,
      "arg_perigee_deg": 239.809,
      "mean_anomaly_deg": 227.858,
      "mean_motion_rev_day": 1.00271655
    },
    {
      "epoch": "2026-03-30T09:29:50.901792Z",
      "apogee_km": 35797.39958888339,
      "perigee_km": 35775.85929629853,
      "latitude_deg": 0.00951877811700481,
      "longitude_deg": -15.018151252364799,
      "height_km": 35779.70238713514,
      "semi_major_axis_km": 42164.76644259096,
      "eccentricity": 0.00025543,
      "inclination_deg": 0.0134,
      "raan_deg": 126.1871,
      "arg_perigee_deg": 242.769,
      "mean_anomaly_deg": 306.2781,
      "mean_motion_rev_day": 1.00271662
    },
    {
      "epoch": "2026-03-30T23:12:38.781792Z",
      "apogee_km": 35797.46006090701,
      "perigee_km": 35775.76966925257,
      "latitude_deg": 0.00287090765546377,
      "longitude_deg": -14.982028513947295,
      "height_km": 35795.69101094258,
      "semi_major_axis_km": 42164.751865079794,
      "eccentricity": 0.00025721,
      "inclination_deg": 0.0167,
      "raan_deg": 119.8943,
      "arg_perigee_deg": 250.1274,
      "mean_anomaly_deg": 151.4749,
      "mean_motion_rev_day": 1.00271714
    },
    {
      "epoch": "2026-03-31T19:43:33.074112Z",
      "apogee_km": 35797.51561642915,
      "perigee_km": 35775.682716042276,
      "latitude_deg": -0.01766860749699053,
      "longitude_deg": -14.968947376378134,
      "height_km": 35787.5539586316,
      "semi_major_axis_km": 42164.736166235714,
      "eccentricity": 0.0002589,
      "inclination_deg": 0.0205,
      "raan_deg": 112.5354,
      "arg_perigee_deg": 259.9735,
      "mean_anomaly_deg": 97.5565,
      "mean_motion_rev_day": 1.0027177
    },
    {
      "epoch": "2026-04-01T16:15:40.809024Z",
      "apogee_km": 35796.57279076685,
      "perigee_km": 35776.19046246274,
      "latitude_deg": -0.009421520105891255,
      "longitude_deg": -14.976215808371183,
      "height_km": 35778.6001415795,
      "semi_major_axis_km": 42164.5186266148,
      "eccentricity": 0.0002417,
      "inclination_deg": 0.0143,
      "raan_deg": 242.7618,
      "arg_perigee_deg": 131.4959,
      "mean_anomaly_deg": 44.6886,
      "mean_motion_rev_day": 1.00272546
    },
    {
      "epoch": "2026-04-02T09:22:28.291872Z",
      "apogee_km": 35796.51012868645,
      "perigee_km": 35776.12192906887,
      "latitude_deg": 0.036534981982918054,
      "longitude_deg": -15.018826062970628,
      "height_km": 35780.61864257094,
      "semi_major_axis_km": 42164.453028877666,
      "eccentricity": 0.00024177,
      "inclination_deg": 0.014,
      "raan_deg": 235.4147,
      "arg_perigee_deg": 140.6148,
      "mean_anomaly_deg": 300.3207,
      "mean_motion_rev_day": 1.0027278
    },
    {
      "epoch": "2026-04-03T19:36:08.235936Z",
      "apogee_km": 35797.53128598167,
      "perigee_km": 35775.26841052579,
      "latitude_deg": -0.038518235470495675,
      "longitude_deg": -14.971483028962151,
      "height_km": 35787.92071846021,
      "semi_major_axis_km": 42164.53684825373,
      "eccentricity": 0.000264,
      "inclination_deg": 0.0172,
      "raan_deg": 230.3298,
      "arg_perigee_deg": 140.399,
      "mean_anomaly_deg": 100.4408,
      "mean_motion_rev_day": 1.00272481
    },
    {
      "epoch": "2026-04-04T04:09:21.582144Z",
      "apogee_km": 35797.54842806522,
      "perigee_km": 35775.25519310529,
      "latitude_deg": 0.01243398325309836,
      "longitude_deg": -15.023738377755095,
      "height_km": 35793.304284109014,
      "semi_major_axis_km": 42164.538810585254,
      "eccentricity": 0.00026436,
      "inclination_deg": 0.0179,
      "raan_deg": 229.836,
      "arg_perigee_deg": 141.3821,
      "mean_anomaly_deg": 228.6097,
      "mean_motion_rev_day": 1.00272474
    },
    {
      "epoch": "2026-04-05T05:49:40.500768Z",
      "apogee_km": 35797.573419488974,
      "perigee_km": 35775.25150700313,
      "latitude_deg": 0.029431160209095687,
      "longitude_deg": -15.029187187677607,
      "height_km": 35789.38536149339,
      "semi_major_axis_km": 42164.549463246054,
      "eccentricity": 0.0002647,
      "inclination_deg": 0.0189,
      "raan_deg": 225.6576,
      "arg_perigee_deg": 148.3789,
      "mean_anomaly_deg": 251.9271,
      "mean_motion_rev_day": 1.00272436
    },
    {
      "epoch": "2026-04-05T19:31:12.194112Z",
      "apogee_km": 35797.55655366919,
      "perigee_km": 35775.26837282292,
      "latitude_deg": -0.03973294433093044,
      "longitude_deg": -14.96981383238758,
      "height_km": 35787.16500856501,
      "semi_major_axis_km": 42164.549463246054,
      "eccentricity": 0.0002643,
      "inclination_deg": 0.0194,
      "raan_deg": 223.1783,
      "arg_perigee_deg": 152.2827,
      "mean_anomaly_deg": 96.4479,
      "mean_motion_rev_day": 1.00272436
    },
    {
      "epoch": "2026-04-06T05:06:38.706336Z",
      "apogee_km": 35798.14796399645,
      "perigee_km": 35775.72710726288,
      "latitude_deg": 0.026281556866190853,
      "longitude_deg": -15.01970558689904,
      "height_km": 35792.736556811076,
      "semi_major_axis_km": 42165.07453562967,
      "eccentricity": 0.00026587,
      "inclination_deg": 0.0179,
      "raan_deg": 213.8946,
      "arg_perigee_deg": 166.3714,
      "mean_anomaly_deg": 235.9034,
      "mean_motion_rev_day": 1.00270563
    },
    {
      "epoch": "2026-04-07T19:26:14.803584Z",
      "apogee_km": 35798.16652248035,
      "perigee_km": 35775.81900370592,
      "latitude_deg": -0.034104903886827,
      "longitude_deg": -14.961812459573078,
      "height_km": 35786.57822492541,
      "semi_major_axis_km": 42165.12976309314,
      "eccentricity": 0.000265,
      "inclination_deg": 0.0154,
      "raan_deg": 200.5016,
      "arg_perigee_deg": 181.7278,
      "mean_anomaly_deg": 90.4176,
      "mean_motion_rev_day": 1.00270366
    },
    {
      "epoch": "2026-04-08T10:17:38.476320Z",
      "apogee_km": 35798.244722319876,
      "perigee_km": 35775.8120110415,
      "latitude_deg": 0.02346104498213503,
      "longitude_deg": -15.013401541265342,
      "height_km": 35778.85948408989,
      "semi_major_axis_km": 42165.16536668069,
      "eccentricity": 0.00026601,
      "inclination_deg": 0.0149,
      "raan_deg": 193.889,
      "arg_perigee_deg": 189.4156,
      "mean_anomaly_deg": 312.8028,
      "mean_motion_rev_day": 1.00270239
    },
    {
      "epoch": "2026-04-09T17:38:40.594848Z",
      "apogee_km": 35797.55120641099,
      "perigee_km": 35775.50751883661,
      "latitude_deg": -0.030602037681705822,
      "longitude_deg": -14.965749778197047,
      "height_km": 35781.00923465049,
      "semi_major_axis_km": 42164.6663626238,
      "eccentricity": 0.0002614,
      "inclination_deg": 0.017,
      "raan_deg": 173.7643,
      "arg_perigee_deg": 210.907,
      "mean_anomaly_deg": 62.9815,
      "mean_motion_rev_day": 1.00272019
    },
    {
      "epoch": "2026-04-10T09:02:44.990304Z",
      "apogee_km": 35797.51264568164,
      "perigee_km": 35775.58700853155,
      "latitude_deg": 0.02218122087201128,
      "longitude_deg": -15.019568610126038,
      "height_km": 35781.50713397027,
      "semi_major_axis_km": 42164.6868271066,
      "eccentricity": 0.00026,
      "inclination_deg": 0.0171,
      "raan_deg": 169.4053,
      "arg_perigee_deg": 215.639,
      "mean_anomaly_deg": 294.26,
      "mean_motion_rev_day": 1.00271946
    },
    {
      "epoch": "2026-04-11T17:33:29.903904Z",
      "apogee_km": 35797.43557586701,
      "perigee_km": 35775.70388601789,
      "latitude_deg": -0.029300052255276578,
      "longitude_deg": -14.96695196320113,
      "height_km": 35781.343636430254,
      "semi_major_axis_km": 42164.70673094245,
      "eccentricity": 0.0002577,
      "inclination_deg": 0.0154,
      "raan_deg": 163.0076,
      "arg_perigee_deg": 221.0338,
      "mean_anomaly_deg": 64.2854,
      "mean_motion_rev_day": 1.00271875
    }
  ]
}